{"type": "FeatureCollection", "features": [ {"type": "Feature", "properties": {"norad_id": 66778, "name": "TRANSPORTER-15DS", "group": "last-30-days", "lat": -40.02120575559053, "lon": 79.42945388542407, "alt_km": 521.2221111046156, "timestamp": "2025-12-27T15:27:09.830539+00:00", "meta": {"OBJECT_NAME": "TRANSPORTER-15DS", "OBJECT_ID": "2025-276DS", "EPOCH": "2025-12-18T19:26:21.991200", "MEAN_MOTION": 15.16535337, "ECCENTRICITY": 0.00032319, "INCLINATION": 97.4427, "RA_OF_ASC_NODE": 64.4586, "ARG_OF_PERICENTER": 41.3734, "MEAN_ANOMALY": 318.7744, "EPHEMERIS_TYPE": 0, "CLASSIFICATION_TYPE": "U", "NORAD_CAT_ID": 66778, "ELEMENT_SET_NO": 999, "REV_AT_EPOCH": 304, "BSTAR": 0.00025483693, "MEAN_MOTION_DOT": 4.904e-05, "MEAN_MOTION_DDOT": 0}, "tle": {"line1": "1 66778U 25276DS  25352.80997675  .00004904  00000+0  25484-3 0  9996", "line2": "2 66778  97.4427  64.4586 0003231  41.3734 318.7744 15.16535337  3043"}}, "geometry": {"type": "Point", "coordinates": [79.42945388542407, -40.02120575559053]}}, {"type": "Feature", "properties": {"norad_id": 66791, "name": "STARLINK-35867", "group": "last-30-days", "lat": 36.90357868538878, "lon": -70.39095642147737, "alt_km": 439.1411298919338, "timestamp": "2025-12-27T15:27:09.830552+00:00", "meta": {"OBJECT_NAME": "STARLINK-35867", "OBJECT_ID": "2025-278A", "EPOCH": "2025-12-27T06:00:02.000160", "MEAN_MOTION": 15.40708987, "ECCENTRICITY": 0.00016275, "INCLINATION": 43.0003, "RA_OF_ASC_NODE": 165.5692, "ARG_OF_PERICENTER": 289.9524, "MEAN_ANOMALY": 161.197, "EPHEMERIS_TYPE": 0, "CLASSIFICATION_TYPE": "U", "NORAD_CAT_ID": 66791, "ELEMENT_SET_NO": 999, "REV_AT_EPOCH": 529, "BSTAR": 0.0010108942, "MEAN_MOTION_DOT": 0.0004217, "MEAN_MOTION_DDOT": 0}, "tle": {"line1": "1 66791U 25278A   25361.25002315  .00042170  00000+0  10109-2 0  9994", "line2": "2 66791  43.0003 165.5692 0001627 289.9524 161.1970 15.40708987  5290"}}, "geometry": {"type": "Point", "coordinates": [-70.39095642147737, 36.90357868538878]}}, {"type": "Feature", "properties": {"norad_id": 66792, "name": "STARLINK-35990", "group": "last-30-days", "lat": -23.74589802795821, "lon": 11.233894885109438, "alt_km": 416.3907486744538, "timestamp": "2025-12-27T15:27:09.830566+00:00", "meta": {"OBJECT_NAME": "STARLINK-35990", "OBJECT_ID": "2025-278B", "EPOCH": "2025-12-27T03:42:13.597920", "MEAN_MOTION": 15.50613758, "ECCENTRICITY": 0.00015443, "INCLINATION": 42.9997, "RA_OF_ASC_NODE": 165.9274, "ARG_OF_PERICENTER": 274.2519, "MEAN_ANOMALY": 85.8164, "EPHEMERIS_TYPE": 0, "CLASSIFICATION_TYPE": "U", "NORAD_CAT_ID": 66792, "ELEMENT_SET_NO": 999, "REV_AT_EPOCH": 409, "BSTAR": 0.0017853791, "MEAN_MOTION_DOT": 0.00105958, "MEAN_MOTION_DDOT": 0}, "tle": {"line1": "1 66792U 25278B   25361.15432405  .00105958  00000+0  17854-2 0  9999", "line2": "2 66792  42.9997 165.9274 0001544 274.2519  85.8164 15.50613758  4096"}}, "geometry": {"type": "Point", "coordinates": [11.233894885109438, -23.74589802795821]}}, {"type": "Feature", "properties": {"norad_id": 66793, "name": "STARLINK-36051", "group": "last-30-days", "lat": -25.989572713593066, "lon": 14.598790688152336, "alt_km": 416.6687377548933, "timestamp": "2025-12-27T15:27:09.830577+00:00", "meta": {"OBJECT_NAME": "STARLINK-36051", "OBJECT_ID": "2025-278C", "EPOCH": "2025-12-27T03:41:14.284320", "MEAN_MOTION": 15.50602721, "ECCENTRICITY": 0.00013715, "INCLINATION": 42.9994, "RA_OF_ASC_NODE": 165.9219, "ARG_OF_PERICENTER": 274.0641, "MEAN_ANOMALY": 86.0062, "EPHEMERIS_TYPE": 0, "CLASSIFICATION_TYPE": "U", "NORAD_CAT_ID": 66793, "ELEMENT_SET_NO": 999, "REV_AT_EPOCH": 409, "BSTAR": 0.0013323569, "MEAN_MOTION_DOT": 0.00078677, "MEAN_MOTION_DDOT": 0}, "tle": {"line1": "1 66793U 25278C   25361.15363755  .00078677  00000+0  13324-2 0  9996", "line2": "2 66793  42.9994 165.9219 0001371 274.0641  86.0062 15.50602721  4093"}}, "geometry": {"type": "Point", "coordinates": [14.598790688152336, -25.989572713593066]}}, {"type": "Feature", "properties": {"norad_id": 66794, "name": "STARLINK-36062", "group": "last-30-days", "lat": -18.792300720465484, "lon": 4.497237717665826, "alt_km": 431.01714390619054, "timestamp": "2025-12-27T15:27:09.830588+00:00", "meta": {"OBJECT_NAME": "STARLINK-36062", "OBJECT_ID": "2025-278D", "EPOCH": "2025-12-27T06:00:02.000160", "MEAN_MOTION": 15.47428349, "ECCENTRICITY": 8.925e-05, "INCLINATION": 43.0005, "RA_OF_ASC_NODE": 165.3701, "ARG_OF_PERICENTER": 272.723, "MEAN_ANOMALY": 260.0783, "EPHEMERIS_TYPE": 0, "CLASSIFICATION_TYPE": "U", "NORAD_CAT_ID": 66794, "ELEMENT_SET_NO": 999, "REV_AT_EPOCH": 529, "BSTAR": -0.044321343, "MEAN_MOTION_DOT": -0.02067964, "MEAN_MOTION_DDOT": 0}, "tle": {"line1": "1 66794U 25278D   25361.25002315 -.02067964  00000+0 -44321-1 0  9991", "line2": "2 66794  43.0005 165.3701 0000892 272.7230 260.0783 15.47428349  5290"}}, "geometry": {"type": "Point", "coordinates": [4.497237717665826, -18.792300720465484]}}, {"type": "Feature", "properties": {"norad_id": 66795, "name": "STARLINK-36047", "group": "last-30-days", "lat": 8.07979616119501, "lon": -25.583877052656284, "alt_km": 442.76616000446757, "timestamp": "2025-12-27T15:27:09.830599+00:00", "meta": {"OBJECT_NAME": "STARLINK-36047", "OBJECT_ID": "2025-278E", "EPOCH": "2025-12-27T06:00:02.000160", "MEAN_MOTION": 15.40653935, "ECCENTRICITY": 0.00015893, "INCLINATION": 43.0004, "RA_OF_ASC_NODE": 165.4487, "ARG_OF_PERICENTER": 257.0644, "MEAN_ANOMALY": 243.9733, "EPHEMERIS_TYPE": 0, "CLASSIFICATION_TYPE": "U", "NORAD_CAT_ID": 66795, "ELEMENT_SET_NO": 999, "REV_AT_EPOCH": 519, "BSTAR": 0.001066945, "MEAN_MOTION_DOT": 0.00044457, "MEAN_MOTION_DDOT": 0}, "tle": {"line1": "1 66795U 25278E   25361.25002315  .00044457  00000+0  10669-2 0  9999", "line2": "2 66795  43.0004 165.4487 0001589 257.0644 243.9733 15.40653935  5199"}}, "geometry": {"type": "Point", "coordinates": [-25.583877052656284, 8.07979616119501]}}, {"type": "Feature", "properties": {"norad_id": 66796, "name": "STARLINK-35964", "group": "last-30-days", "lat": 36.48285847184173, "lon": -72.84650352340378, "alt_km": 320.8696493790503, "timestamp": "2025-12-27T15:27:09.830609+00:00", "meta": {"OBJECT_NAME": "STARLINK-35964", "OBJECT_ID": "2025-278F", "EPOCH": "2025-12-27T04:20:25.560960", "MEAN_MOTION": 15.81087319, "ECCENTRICITY": 0.00016251, "INCLINATION": 42.9909, "RA_OF_ASC_NODE": 162.5369, "ARG_OF_PERICENTER": 314.5847, "MEAN_ANOMALY": 45.4892, "EPHEMERIS_TYPE": 0, "CLASSIFICATION_TYPE": "U", "NORAD_CAT_ID": 66796, "ELEMENT_SET_NO": 999, "REV_AT_EPOCH": 413, "BSTAR": 0.0030705508, "MEAN_MOTION_DOT": 0.00669209, "MEAN_MOTION_DDOT": 0}, "tle": {"line1": "1 66796U 25278F   25361.18085140  .00669209  00000+0  30706-2 0  9991", "line2": "2 66796  42.9909 162.5369 0001625 314.5847  45.4892 15.81087319  4130"}}, "geometry": {"type": "Point", "coordinates": [-72.84650352340378, 36.48285847184173]}}, {"type": "Feature", "properties": {"norad_id": 66797, "name": "STARLINK-36099", "group": "last-30-days", "lat": -29.23371352850909, "lon": 19.950655628463647, "alt_km": 417.25878064773406, "timestamp": "2025-12-27T15:27:09.830620+00:00", "meta": {"OBJECT_NAME": "STARLINK-36099", "OBJECT_ID": "2025-278G", "EPOCH": "2025-12-27T03:39:45.684576", "MEAN_MOTION": 15.50604167, "ECCENTRICITY": 8.923e-05, "INCLINATION": 42.9995, "RA_OF_ASC_NODE": 165.9126, "ARG_OF_PERICENTER": 305.4683, "MEAN_ANOMALY": 54.6093, "EPHEMERIS_TYPE": 0, "CLASSIFICATION_TYPE": "U", "NORAD_CAT_ID": 66797, "ELEMENT_SET_NO": 999, "REV_AT_EPOCH": 409, "BSTAR": 0.0016680916, "MEAN_MOTION_DOT": 0.0009885, "MEAN_MOTION_DDOT": 0}, "tle": {"line1": "1 66797U 25278G   25361.15261209  .00098850  00000+0  16681-2 0  9995", "line2": "2 66797  42.9995 165.9126 0000892 305.4683  54.6093 15.50604167  4098"}}, "geometry": {"type": "Point", "coordinates": [19.950655628463647, -29.23371352850909]}}, {"type": "Feature", "properties": {"norad_id": 66798, "name": "STARLINK-36041", "group": "last-30-days", "lat": -30.273779913280496, "lon": 21.82072325417933, "alt_km": 417.53540488852923, "timestamp": "2025-12-27T15:27:09.830632+00:00", "meta": {"OBJECT_NAME": "STARLINK-36041", "OBJECT_ID": "2025-278H", "EPOCH": "2025-12-27T03:39:16.216128", "MEAN_MOTION": 15.50609611, "ECCENTRICITY": 8.481e-05, "INCLINATION": 42.9995, "RA_OF_ASC_NODE": 165.9091, "ARG_OF_PERICENTER": 334.268, "MEAN_ANOMALY": 25.8138, "EPHEMERIS_TYPE": 0, "CLASSIFICATION_TYPE": "U", "NORAD_CAT_ID": 66798, "ELEMENT_SET_NO": 999, "REV_AT_EPOCH": 409, "BSTAR": 0.0019211112, "MEAN_MOTION_DOT": 0.00114142, "MEAN_MOTION_DDOT": 0}, "tle": {"line1": "1 66798U 25278H   25361.15227102  .00114142  00000+0  19211-2 0  9995", "line2": "2 66798  42.9995 165.9091 0000848 334.2680  25.8138 15.50609611  4097"}}, "geometry": {"type": "Point", "coordinates": [21.82072325417933, -30.273779913280496]}}, {"type": "Feature", "properties": {"norad_id": 66799, "name": "STARLINK-36044", "group": "last-30-days", "lat": -31.262775174456905, "lon": 23.68639764998243, "alt_km": 417.238917194898, "timestamp": "2025-12-27T15:27:09.830646+00:00", "meta": {"OBJECT_NAME": "STARLINK-36044", "OBJECT_ID": "2025-278J", "EPOCH": "2025-12-27T03:38:46.280256", "MEAN_MOTION": 15.5060334, "ECCENTRICITY": 0.00010255, "INCLINATION": 42.9995, "RA_OF_ASC_NODE": 165.9075, "ARG_OF_PERICENTER": 293.0188, "MEAN_ANOMALY": 67.0564, "EPHEMERIS_TYPE": 0, "CLASSIFICATION_TYPE": "U", "NORAD_CAT_ID": 66799, "ELEMENT_SET_NO": 999, "REV_AT_EPOCH": 409, "BSTAR": 0.0013597497, "MEAN_MOTION_DOT": 0.0008032, "MEAN_MOTION_DDOT": 0}, "tle": {"line1": "1 66799U 25278J   25361.15192454  .00080320  00000+0  13597-2 0  9998", "line2": "2 66799  42.9995 165.9075 0001025 293.0188  67.0564 15.50603340  4097"}}, "geometry": {"type": "Point", "coordinates": [23.68639764998243, -31.262775174456905]}}]}